[{"CCSDS_OMM_VERS":"2.0","COMMENT":"GENERATED VIA SPACE-TRACK.ORG API","CREATION_DATE":"2004-08-15T23:35:47","ORIGINATOR":"18 SPCS","OBJECT_NAME":"TITAN 3C TRANSTAGE DEB","OBJECT_ID":"1965-082GJ","CENTER_NAME":"EARTH","REF_FRAME":"TEME","TIME_SYSTEM":"UTC","MEAN_ELEMENT_THEORY":"SGP4","EPOCH":"1966-06-18T02:21:43.843103","MEAN_MOTION":"16.07607424","ECCENTRICITY":"0.00000000","INCLINATION":"32.7211","RA_OF_ASC_NODE":"354.3190","ARG_OF_PERICENTER":"33.2231","MEAN_ANOMALY":"326.7768","EPHEMERIS_TYPE":"0","CLASSIFICATION_TYPE":"U","NORAD_CAT_ID":"1924","ELEMENT_SET_NO":"999","REV_AT_EPOCH":"2829","BSTAR":"0.00000000000000","MEAN_MOTION_DOT":"0.00765904","MEAN_MOTION_DDOT":"0.0015189000000","SEMIMAJOR_AXIS":"6631.556","PERIOD":"89.574","APOAPSIS":"253.421","PERIAPSIS":"253.421","OBJECT_TYPE":"DEBRIS","RCS_SIZE":null,"COUNTRY_CODE":null,"LAUNCH_DATE":null,"SITE":null,"DECAY_DATE":"1966-06-21","FILE":"33914","GP_ID":"8718098","TLE_LINE0":"0 TITAN 3C TRANSTAGE DEB","TLE_LINE1":"1 01924U 65082 GJ 66169.09842411  .00765904 +15189-2 +00000-0 0  9991","TLE_LINE2":"2 01924 032.7211 354.3190 0000000 033.2231 326.7768 16.07607424028290"},{"CCSDS_OMM_VERS":"2.0","COMMENT":"GENERATED VIA SPACE-TRACK.ORG API","CREATION_DATE":"2004-08-15T23:35:47","ORIGINATOR":"18 SPCS","OBJECT_NAME":"SL-3 DEB","OBJECT_ID":"1966-054E","CENTER_NAME":"EARTH","REF_FRAME":"TEME","TIME_SYSTEM":"UTC","MEAN_ELEMENT_THEORY":"SGP4","EPOCH":"1966-06-18T04:47:12.374592","MEAN_MOTION":"16.05209061","ECCENTRICITY":"0.00932640","INCLINATION":"72.8549","RA_OF_ASC_NODE":"73.2645","ARG_OF_PERICENTER":"59.4942","MEAN_ANOMALY":"301.4518","EPHEMERIS_TYPE":"0","CLASSIFICATION_TYPE":"U","NORAD_CAT_ID":"2214","ELEMENT_SET_NO":"999","REV_AT_EPOCH":"12","BSTAR":"0.00000000000000","MEAN_MOTION_DOT":"0.03596708","MEAN_MOTION_DDOT":"0.0323640000000","SEMIMAJOR_AXIS":"6638.160","PERIOD":"89.707","APOAPSIS":"321.935","PERIAPSIS":"198.114","OBJECT_TYPE":"DEBRIS","RCS_SIZE":null,"COUNTRY_CODE":null,"LAUNCH_DATE":null,"SITE":null,"DECAY_DATE":"1966-06-20","FILE":"33914","GP_ID":"8720063","TLE_LINE0":"0 SL-3 DEB","TLE_LINE1":"1 02214U 66054  E 66169.19944878  .03596708 +32364-1 +00000-0 0  9995","TLE_LINE2":"2 02214 072.8549 073.2645 0093264 059.4942 301.4518 16.05209061000125"},{"CCSDS_OMM_VERS":"2.0","COMMENT":"GENERATED VIA SPACE-TRACK.ORG API","CREATION_DATE":"2004-08-15T23:35:47","ORIGINATOR":"18 SPCS","OBJECT_NAME":"ATLAS D DEB","OBJECT_ID":"1966-046AA","CENTER_NAME":"EARTH","REF_FRAME":"TEME","TIME_SYSTEM":"UTC","MEAN_ELEMENT_THEORY":"SGP4","EPOCH":"1966-06-18T08:07:12.845567","MEAN_MOTION":"15.58830131","ECCENTRICITY":"0.02416150","INCLINATION":"27.2762","RA_OF_ASC_NODE":"190.3750","ARG_OF_PERICENTER":"23.7610","MEAN_ANOMALY":"337.3781","EPHEMERIS_TYPE":"0","CLASSIFICATION_TYPE":"U","NORAD_CAT_ID":"2248","ELEMENT_SET_NO":"999","REV_AT_EPOCH":"263","BSTAR":"0.00000000000000","MEAN_MOTION_DOT":"0.02633852","MEAN_MOTION_DDOT":"0.0109500000000","SEMIMAJOR_AXIS":"6769.183","PERIOD":"92.376","APOAPSIS":"554.601","PERIAPSIS":"227.494","OBJECT_TYPE":"DEBRIS","RCS_SIZE":null,"COUNTRY_CODE":null,"LAUNCH_DATE":null,"SITE":null,"DECAY_DATE":"1966-06-23","FILE":"33914","GP_ID":"8720126","TLE_LINE0":"0 ATLAS D DEB","TLE_LINE1":"1 02248U 66046 AA 66169.33834312  .02633852 +10950-1 +00000-0 0  9998","TLE_LINE2":"2 02248 027.2762 190.3750 0241615 023.7610 337.3781 15.58830131002635"},{"CCSDS_OMM_VERS":"2.0","COMMENT":"GENERATED VIA SPACE-TRACK.ORG API","CREATION_DATE":"2004-08-15T23:35:47","ORIGINATOR":"18 SPCS","OBJECT_NAME":"SL-3 DEB","OBJECT_ID":"1966-054C","CENTER_NAME":"EARTH","REF_FRAME":"TEME","TIME_SYSTEM":"UTC","MEAN_ELEMENT_THEORY":"SGP4","EPOCH":"1966-06-18T19:31:59.244096","MEAN_MOTION":"16.24733622","ECCENTRICITY":"0.01121980","INCLINATION":"72.9834","RA_OF_ASC_NODE":"71.5233","ARG_OF_PERICENTER":"51.3277","MEAN_ANOMALY":"309.7121","EPHEMERIS_TYPE":"0","CLASSIFICATION_TYPE":"U","NORAD_CAT_ID":"2212","ELEMENT_SET_NO":"999","REV_AT_EPOCH":"22","BSTAR":"0.00000000000000","MEAN_MOTION_DOT":"0.31901013","MEAN_MOTION_DDOT":"0.1176100000000","SEMIMAJOR_AXIS":"6584.872","PERIOD":"88.629","APOAPSIS":"280.617","PERIAPSIS":"132.856","OBJECT_TYPE":"DEBRIS","RCS_SIZE":null,"COUNTRY_CODE":null,"LAUNCH_DATE":null,"SITE":null,"DECAY_DATE":"1966-06-19","FILE":"33914","GP_ID":"8720061","TLE_LINE0":"0 SL-3 DEB","TLE_LINE1":"1 02212U 66054  C 66169.81388014  .31901013 +11761-0 +00000-0 0  9993","TLE_LINE2":"2 02212 072.9834 071.5233 0112198 051.3277 309.7121 16.24733622000223"},{"CCSDS_OMM_VERS":"2.0","COMMENT":"GENERATED VIA SPACE-TRACK.ORG API","CREATION_DATE":"2004-08-15T23:35:47","ORIGINATOR":"18 SPCS","OBJECT_NAME":"SL-3 DEB","OBJECT_ID":"1966-054D","CENTER_NAME":"EARTH","REF_FRAME":"TEME","TIME_SYSTEM":"UTC","MEAN_ELEMENT_THEORY":"SGP4","EPOCH":"1966-06-18T19:40:36.681600","MEAN_MOTION":"16.13179251","ECCENTRICITY":"0.00658380","INCLINATION":"72.9411","RA_OF_ASC_NODE":"71.4022","ARG_OF_PERICENTER":"73.3430","MEAN_ANOMALY":"287.3926","EPHEMERIS_TYPE":"0","CLASSIFICATION_TYPE":"U","NORAD_CAT_ID":"2213","ELEMENT_SET_NO":"999","REV_AT_EPOCH":"22","BSTAR":"0.00000000000000","MEAN_MOTION_DOT":"0.05857067","MEAN_MOTION_DDOT":"0.0969750000000","SEMIMAJOR_AXIS":"6616.277","PERIOD":"89.264","APOAPSIS":"281.702","PERIAPSIS":"194.582","OBJECT_TYPE":"DEBRIS","RCS_SIZE":null,"COUNTRY_CODE":null,"LAUNCH_DATE":null,"SITE":null,"DECAY_DATE":"1966-06-20","FILE":"33914","GP_ID":"8720062","TLE_LINE0":"0 SL-3 DEB","TLE_LINE1":"1 02213U 66054  D 66169.81986900  .05857067 +96975-1 +00000-0 0  9993","TLE_LINE2":"2 02213 072.9411 071.4022 0065838 073.3430 287.3926 16.13179251000227"},{"CCSDS_OMM_VERS":"2.0","COMMENT":"GENERATED VIA SPACE-TRACK.ORG API","CREATION_DATE":"2004-08-15T23:35:47","ORIGINATOR":"18 SPCS","OBJECT_NAME":"ATLAS D DEB","OBJECT_ID":"1966-046P","CENTER_NAME":"EARTH","REF_FRAME":"TEME","TIME_SYSTEM":"UTC","MEAN_ELEMENT_THEORY":"SGP4","EPOCH":"1966-06-18T20:53:51.618911","MEAN_MOTION":"16.07876014","ECCENTRICITY":"0.00910170","INCLINATION":"29.7975","RA_OF_ASC_NODE":"185.2674","ARG_OF_PERICENTER":"149.3538","MEAN_ANOMALY":"211.2230","EPHEMERIS_TYPE":"0","CLASSIFICATION_TYPE":"U","NORAD_CAT_ID":"2237","ELEMENT_SET_NO":"999","REV_AT_EPOCH":"275","BSTAR":"0.00000000000000","MEAN_MOTION_DOT":"0.01422090","MEAN_MOTION_DDOT":"0.0052575000000","SEMIMAJOR_AXIS":"6630.817","PERIOD":"89.559","APOAPSIS":"313.034","PERIAPSIS":"192.330","OBJECT_TYPE":"DEBRIS","RCS_SIZE":null,"COUNTRY_CODE":null,"LAUNCH_DATE":null,"SITE":null,"DECAY_DATE":"1966-06-23","FILE":"33914","GP_ID":"8720115","TLE_LINE0":"0 ATLAS D DEB","TLE_LINE1":"1 02237U 66046  P 66169.87073633  .01422090 +52575-2 +00000-0 0  9995","TLE_LINE2":"2 02237 029.7975 185.2674 0091017 149.3538 211.2230 16.07876014002754"},{"CCSDS_OMM_VERS":"2.0","COMMENT":"GENERATED VIA SPACE-TRACK.ORG API","CREATION_DATE":"2004-08-15T23:35:47","ORIGINATOR":"18 SPCS","OBJECT_NAME":"ATLAS D DEB","OBJECT_ID":"1966-046W","CENTER_NAME":"EARTH","REF_FRAME":"TEME","TIME_SYSTEM":"UTC","MEAN_ELEMENT_THEORY":"SGP4","EPOCH":"1966-06-18T23:53:36.105791","MEAN_MOTION":"16.07598153","ECCENTRICITY":"0.00447900","INCLINATION":"29.4735","RA_OF_ASC_NODE":"187.4486","ARG_OF_PERICENTER":"118.8830","MEAN_ANOMALY":"241.5809","EPHEMERIS_TYPE":"0","CLASSIFICATION_TYPE":"U","NORAD_CAT_ID":"2244","ELEMENT_SET_NO":"999","REV_AT_EPOCH":"277","BSTAR":"0.00000000000000","MEAN_MOTION_DOT":"0.01232540","MEAN_MOTION_DDOT":"0.0039329000000","SEMIMAJOR_AXIS":"6631.581","PERIOD":"89.574","APOAPSIS":"283.149","PERIAPSIS":"223.743","OBJECT_TYPE":"DEBRIS","RCS_SIZE":null,"COUNTRY_CODE":null,"LAUNCH_DATE":null,"SITE":null,"DECAY_DATE":"1966-06-24","FILE":"33914","GP_ID":"8720122","TLE_LINE0":"0 ATLAS D DEB","TLE_LINE1":"1 02244U 66046  W 66169.99555678  .01232540 +39329-2 +00000-0 0  9991","TLE_LINE2":"2 02244 029.4735 187.4486 0044790 118.8830 241.5809 16.07598153002775"},{"CCSDS_OMM_VERS":"2.0","COMMENT":"GENERATED VIA SPACE-TRACK.ORG API","CREATION_DATE":"2004-08-15T23:35:47","ORIGINATOR":"18 SPCS","OBJECT_NAME":"ATLAS D DEB","OBJECT_ID":"1966-046AC","CENTER_NAME":"EARTH","REF_FRAME":"TEME","TIME_SYSTEM":"UTC","MEAN_ELEMENT_THEORY":"SGP4","EPOCH":"1966-06-19T00:08:32.535168","MEAN_MOTION":"15.98415706","ECCENTRICITY":"0.00593490","INCLINATION":"28.5688","RA_OF_ASC_NODE":"185.2996","ARG_OF_PERICENTER":"24.4026","MEAN_ANOMALY":"335.9207","EPHEMERIS_TYPE":"0","CLASSIFICATION_TYPE":"U","NORAD_CAT_ID":"2250","ELEMENT_SET_NO":"999","REV_AT_EPOCH":"278","BSTAR":"0.00000000000000","MEAN_MOTION_DOT":"0.00802519","MEAN_MOTION_DDOT":"0.0014730000000","SEMIMAJOR_AXIS":"6656.955","PERIOD":"90.089","APOAPSIS":"318.328","PERIAPSIS":"239.311","OBJECT_TYPE":"DEBRIS","RCS_SIZE":null,"COUNTRY_CODE":null,"LAUNCH_DATE":null,"SITE":null,"DECAY_DATE":"1966-06-29","FILE":"33914","GP_ID":"8720128","TLE_LINE0":"0 ATLAS D DEB","TLE_LINE1":"1 02250U 66046 AC 66170.00593212  .00802519 +14730-2 +00000-0 0  9995","TLE_LINE2":"2 02250 028.5688 185.2996 0059349 024.4026 335.9207 15.98415706002788"}]